CTC1_L_00113016-03
1 12118U 26145OK  26037.47802083  .00000000  00000+0  00000-0 0  9990
2 12118  80.0000 180.0000 0000000   0.0000   0.0000 14.33516502    13
CTC1_L_00113016-04
1 12119U 26114SO  26037.47802083  .00000000  00000+0  00000-0 0  9997
2 12119  80.0000 180.0000 0000000   0.0000  90.0000 14.33516502    13
CTC1_L_00113017-01
1 12120U 25344DW  26037.47802083  .00000000  00000+0  00000-0 0  9993
2 12120  80.0000 192.0000 0000000   0.0000 192.0000 14.33516502    11
CTC1_L_00113017-02
1 12121U 23318QA  26037.47802083  .00000000  00000+0  00000-0 0  9993
2 12121  80.0000 192.0000 0000000   0.0000 282.0000 14.33516502    12
CTC1_L_00113017-03
1 12122U 24146CE  26037.47802083  .00000000  00000+0  00000-0 0  9994
2 12122  80.0000 192.0000 0000000   0.0000  12.0000 14.33516502    14
CTC1_L_00113017-04
1 12123U 26218TD  26037.47802083  .00000000  00000+0  00000-0 0  9997
2 12123  80.0000 192.0000 0000000   0.0000 102.0000 14.33516502    15
CTC1_L_00113018-01
1 12124U 23413GG  26037.47802083  .00000000  00000+0  00000-0 0  9992
2 12124  80.0000 204.0000 0000000   0.0000 204.0000 14.33516502    13
CTC1_L_00113018-02
1 12125U 24314FQ  26037.47802083  .00000000  00000+0  00000-0 0  9994
2 12125  80.0000 204.0000 0000000   0.0000 294.0000 14.33516502    13
CTC1_L_00113018-03
1 12126U 22934HZ  26037.47802083  .00000000  00000+0  00000-0 0  9991
2 12126  80.0000 204.0000 0000000   0.0000  24.0000 14.33516502    15
CTC1_L_00113018-04
1 12127U 23520GJ  26037.47802083  .00000000  00000+0  00000-0 0  9994
2 12127  80.0000 204.0000 0000000   0.0000 114.0000 14.33516502    16
CTC1_L_00113019-01
1 12128U 22586WC  26037.47802083  .00000000  00000+0  00000-0 0  9996
2 12128  80.0000 216.0000 0000000   0.0000 216.0000 14.33516502    13
CTC1_L_00113019-02
1 12129U 25608OY  26037.47802083  .00000000  00000+0  00000-0 0  9995
2 12129  80.0000 216.0000 0000000   0.0000 306.0000 14.33516502    14
CTC1_L_00113019-03
1 12130U 22034CT  26037.47802083  .00000000  00000+0  00000-0 0  9997
2 12130  80.0000 216.0000 0000000   0.0000  36.0000 14.33516502    16
CTC1_L_00113019-04
1 12131U 25294RQ  26037.47802083  .00000000  00000+0  00000-0 0  9999
2 12131  80.0000 216.0000 0000000   0.0000 126.0000 14.33516502    17
CTC1_L_00113020-01
1 12132U 25250CB  26037.47802083  .00000000  00000+0  00000-0 0  9992
2 12132  80.0000 228.0000 0000000   0.0000 228.0000 14.33516502    14
CTC1_L_00113020-02
1 12133U 24342PZ  26037.47802083  .00000000  00000+0  00000-0 0  9994
2 12133  80.0000 228.0000 0000000   0.0000 318.0000 14.33516502    15
CTC1_L_00113020-03
1 12134U 23816LY  26037.47802083  .00000000  00000+0  00000-0 0  9990
2 12134  80.0000 228.0000 0000000   0.0000  48.0000 14.33516502    16
CTC1_L_00113020-04
1 12135U 26684UF  26037.47802083  .00000000  00000+0  00000-0 0  9997
2 12135  80.0000 228.0000 0000000   0.0000 138.0000 14.33516502    17
CTC1_L_00113021-01
1 12136U 22775MO  26037.47802083  .00000000  00000+0  00000-0 0  9995
2 12136  80.0000 240.0000 0000000   0.0000 240.0000 14.33516502    16
CTC1_L_00113021-02
1 12137U 26703HG  26037.47802083  .00000000  00000+0  00000-0 0  9991
2 12137  80.0000 240.0000 0000000   0.0000 330.0000 14.33516502    17
CTC1_L_00113021-03
1 12138U 26873FP  26037.47802083  .00000000  00000+0  00000-0 0  9990
2 12138  80.0000 240.0000 0000000   0.0000  60.0000 14.33516502    18
CTC1_L_00113021-04
1 12139U 26316MW  26037.47802083  .00000000  00000+0  00000-0 0  9993
2 12139  80.0000 240.0000 0000000   0.0000 150.0000 14.33516502    19
CTC1_L_00113022-01
1 12140U 25522QV  26037.47802083  .00000000  00000+0  00000-0 0  9993
2 12140  80.0000 252.0000 0000000   0.0000 252.0000 14.33516502    17
CTC1_L_00113022-02
1 12141U 23403AO  26037.47802083  .00000000  00000+0  00000-0 0  9990
2 12141  80.0000 252.0000 0000000   0.0000 342.0000 14.33516502    18
CTC1_L_00113022-03
1 12142U 25377PC  26037.47802083  .00000000  00000+0  00000-0 0  9993
2 12142  80.0000 252.0000 0000000   0.0000  72.0000 14.33516502    19
CTC1_L_00113022-04
1 12143U 25555GS  26037.47802083  .00000000  00000+0  00000-0 0  9992
2 12143  80.0000 252.0000 0000000   0.0000 162.0000 14.33516502    10
CTC1_L_00113023-01
1 12144U 24160KI  26037.47802083  .00000000  00000+0  00000-0 0  9994
2 12144  80.0000 264.0000 0000000   0.0000 264.0000 14.33516502    17
CTC1_L_00113023-02
1 12145U 25337B   26037.47802083  .00000000  00000+0  00000-0 0  9992
2 12145  80.0000 264.0000 0000000   0.0000 354.0000 14.33516502    18
CTC1_L_00113023-03
1 12146U 25733GO  26037.47802083  .00000000  00000+0  00000-0 0  9993
2 12146  80.0000 264.0000 0000000   0.0000  84.0000 14.33516502    19
CTC1_L_00113023-04
1 12147U 22973EE  26037.47802083  .00000000  00000+0  00000-0 0  9997
2 12147  80.0000 264.0000 0000000   0.0000 174.0000 14.33516502    10
CTC1_L_00113024-01
1 12148U 25745LQ  26037.47802083  .00000000  00000+0  00000-0 0  9998
2 12148  80.0000 276.0000 0000000   0.0000 276.0000 14.33516502    17
CTC1_L_00113024-02
1 12149U 25628OA  26037.47802083  .00000000  00000+0  00000-0 0  9999
2 12149  80.0000 276.0000 0000000   0.0000   6.0000 14.33516502    19
CTC1_L_00113024-03
1 12150U 25348BU  26037.47802083  .00000000  00000+0  00000-0 0  9990
2 12150  80.0000 276.0000 0000000   0.0000  96.0000 14.33516502    10
CTC1_L_00113024-04
1 12151U 22138AK  26037.47802083  .00000000  00000+0  00000-0 0  9995
2 12151  80.0000 276.0000 0000000   0.0000 186.0000 14.33516502    11
CTC1_L_00113025-01
1 12152U 26939ZK  26037.47802083  .00000000  00000+0  00000-0 0  9999
2 12152  80.0000 288.0000 0000000   0.0000 288.0000 14.33516502    18
CTC1_L_00113025-02
1 12153U 22953UE  26037.47802083  .00000000  00000+0  00000-0 0  9992
2 12153  80.0000 288.0000 0000000   0.0000  18.0000 14.33516502    10
CTC1_L_00113025-03
1 12154U 25423LD  26037.47802083  .00000000  00000+0  00000-0 0  9998
2 12154  80.0000 288.0000 0000000   0.0000 108.0000 14.33516502    11
CTC1_L_00113025-04
1 12155U 23279N   26037.47802083  .00000000  00000+0  00000-0 0  9996
2 12155  80.0000 288.0000 0000000   0.0000 198.0000 14.33516502    11
CTC1_L_00113026-01
1 12156U 24438KX  26037.47802083  .00000000  00000+0  00000-0 0  9995
2 12156  80.0000 300.0000 0000000   0.0000 300.0000 14.33516502    12
CTC1_L_00113026-02
1 12157U 24568HS  26037.47802083  .00000000  00000+0  00000-0 0  9990
2 12157  80.0000 300.0000 0000000   0.0000  30.0000 14.33516502    13
CTC1_L_00113026-03
1 12158U 25518SY  26037.47802083  .00000000  00000+0  00000-0 0  9997
2 12158  80.0000 300.0000 0000000   0.0000 120.0000 14.33516502    14
CTC1_L_00113026-04
1 12159U 25284X   26037.47802083  .00000000  00000+0  00000-0 0  9998
2 12159  80.0000 300.0000 0000000   0.0000 210.0000 14.33516502    15
CTC1_L_00113027-01
1 12160U 25100FL  26037.47802083  .00000000  00000+0  00000-0 0  9997
2 12160  80.0000 312.0000 0000000   0.0000 312.0000 14.33516502    13
CTC1_L_00113027-02
1 12161U 23958YH  26037.47802083  .00000000  00000+0  00000-0 0  9997
2 12161  80.0000 312.0000 0000000   0.0000  42.0000 14.33516502    14
CTC1_L_00113027-03
1 12162U 26696HC  26037.47802083  .00000000  00000+0  00000-0 0  9990
2 12162  80.0000 312.0000 0000000   0.0000 132.0000 14.33516502    15
CTC1_L_00113027-04
1 12163U 26331WF  26037.47802083  .00000000  00000+0  00000-0 0  9997
2 12163  80.0000 312.0000 0000000   0.0000 222.0000 14.33516502    16
CTC1_L_00113028-01
1 12164U 24623US  26037.47802083  .00000000  00000+0  00000-0 0  9990
2 12164  80.0000 324.0000 0000000   0.0000 324.0000 14.33516502    13
CTC1_L_00113028-02
1 12165U 25115EQ  26037.47802083  .00000000  00000+0  00000-0 0  9998
2 12165  80.0000 324.0000 0000000   0.0000  54.0000 14.33516502    14
CTC1_L_00113028-03
1 12166U 26185DA  26037.47802083  .00000000  00000+0  00000-0 0  9997
2 12166  80.0000 324.0000 0000000   0.0000 144.0000 14.33516502    15
CTC1_L_00113028-04
1 12167U 22882FD  26037.47802083  .00000000  00000+0  00000-0 0  9998
2 12167  80.0000 324.0000 0000000   0.0000 234.0000 14.33516502    16
CTC1_L_00113029-01
1 12168U 22826JZ  26037.47802083  .00000000  00000+0  00000-0 0  9997
2 12168  80.0000 336.0000 0000000   0.0000 336.0000 14.33516502    13
CTC1_L_00113029-02
1 12169U 24173TC  26037.47802083  .00000000  00000+0  00000-0 0  9995
2 12169  80.0000 336.0000 0000000   0.0000  66.0000 14.33516502    14
CTC1_L_00113029-03
1 12170U 26910CX  26037.47802083  .00000000  00000+0  00000-0 0  9998
2 12170  80.0000 336.0000 0000000   0.0000 156.0000 14.33516502    16
CTC1_L_00113029-04
1 12171U 26150ER  26037.47802083  .00000000  00000+0  00000-0 0  9995
2 12171  80.0000 336.0000 0000000   0.0000 246.0000 14.33516502    17
CTC1_L_00113030-01
1 12172U 22337NC  26037.47802083  .00000000  00000+0  00000-0 0  9999
2 12172  80.0000 348.0000 0000000   0.0000 348.0000 14.33516502    14
CTC1_L_00113030-02
1 12173U 24741ZN  26037.47802083  .00000000  00000+0  00000-0 0  9991
2 12173  80.0000 348.0000 0000000   0.0000  78.0000 14.33516502    15
CTC1_L_00113030-03
1 12174U 26881PT  26037.47802083  .00000000  00000+0  00000-0 0  9999
2 12174  80.0000 348.0000 0000000   0.0000 168.0000 14.33516502    16
CTC1_L_00113030-04
1 12175U 22430VV  26037.47802083  .00000000  00000+0  00000-0 0  9996
2 12175  80.0000 348.0000 0000000   0.0000 258.0000 14.33516502    17
